ONEWEB-0159             
1 48062U 21025W   25300.23985548  .00000202  00000+0  51921-3 0  9998
2 48062  87.9039   6.4964 0001930  93.1315 267.0035 13.13472946223024
ONEWEB-0164             
1 48063U 21025X   25300.22123513 -.00000262  00000+0 -75261-3 0  9995
2 48063  87.9038   6.5080 0001803 102.5717 257.5614 13.13472393223005
ONEWEB-0167             
1 48064U 21025Y   25300.24917842  .00000337  00000+0  88730-3 0  9990
2 48064  87.9028   6.5337 0002565 103.3078 256.8338 13.13469570222990
ONEWEB-0166             
1 48065U 21025Z   25300.27202290  .00000063  00000+0  13855-3 0  9990
2 48065  87.9039   6.4820 0001782  93.3538 266.7795 13.13468072223071
ONEWEB-0151             
1 48066U 21025AA  25300.19753906  .00000009  00000+0 -10921-4 0  9990
2 48066  87.9039   6.5224 0001953 102.1326 258.0022 13.13471240223006
ONEWEB-0170             
1 48067U 21025AB  25300.20599887 -.00000123  00000+0 -37230-3 0  9998
2 48067  87.9038   6.5276 0001948 114.1176 246.0157 13.13467957222963
ONEWEB-0168             
1 48068U 21025AC  25300.19077098  .00000225  00000+0  58030-3 0  9994
2 48068  87.9044   6.5127 0001946  95.3863 264.7489 13.13468692222970
ONEWEB-0173             
1 48069U 21025AD  25300.25848271  .00000310  00000+0  81470-3 0  9990
2 48069  87.9042   6.5072 0002279  96.5803 263.5586 13.13471322223223
